[{"OBJECT_NAME":"STARLINK-4506","OBJECT_ID":"2022-101AD","EPOCH":"2026-03-09T09:28:50.249856","MEAN_MOTION":15.08845579,"ECCENTRICITY":0.00014825,"INCLINATION":53.2176,"RA_OF_ASC_NODE":65.4516,"ARG_OF_PERICENTER":94.2524,"MEAN_ANOMALY":265.8638,"EPHEMERIS_TYPE":0,"CLASSIFICATION_TYPE":"U","NORAD_CAT_ID":53554,"ELEMENT_SET_NO":999,"REV_AT_EPOCH":19626,"BSTAR":-5.6288253e-5,"MEAN_MOTION_DOT":-1.184e-5,"MEAN_MOTION_DDOT":0},{"OBJECT_NAME":"LEMUR-2-AHMED-ASRAR","OBJECT_ID":"2024-149DN","EPOCH":"2026-03-09T17:35:01.338432","MEAN_MOTION":15.10376432,"ECCENTRICITY":0.00016334,"INCLINATION":97.7021,"RA_OF_ASC_NODE":152.9847,"ARG_OF_PERICENTER":18.5035,"MEAN_ANOMALY":341.6253,"EPHEMERIS_TYPE":0,"CLASSIFICATION_TYPE":"U","NORAD_CAT_ID":60576,"ELEMENT_SET_NO":999,"REV_AT_EPOCH":8554,"BSTAR":0.0007977347,"MEAN_MOTION_DOT":0.00013045,"MEAN_MOTION_DDOT":0}]
