STARLINK-4506           
1 53554U 22101AD  26068.39502604 -.00001184  00000+0 -56288-4 0  9997
2 53554  53.2176  65.4516 0001482  94.2524 265.8638 15.08845579196260
LEMUR-2-AHMED-ASRAR     
1 60576U 24149DN  26068.73265438  .00013045  00000+0  79773-3 0  9992
2 60576  97.7021 152.9847 0001633  18.5035 341.6253 15.10376432 85541
